TDRS 3                  
1 19548U 88091B   20116.45961543 -.00000296  00000-0  00000-0 0  9998
2 19548  14.2045 357.8929 0037421 325.4545   6.9231  1.00265339102905
HST                     
1 20580U 90037B   20116.59063918  .00000476  00000-0  17999-4 0  9991
2 20580  28.4701 309.3022 0002563 241.0663 180.7068 15.09375906447972
TDRS 5                  
1 21639U 91054B   20116.39139671  .00000089  00000-0  00000-0 0  9996
2 21639  14.3043  11.1790 0029165   4.9519 171.0925  1.00267398105218
TDRS 6                  
1 22314U 93003B   20116.45931448 -.00000289  00000-0  00000-0 0  9995
2 22314  14.0270  14.3075 0008440  51.1851 267.6798  1.00280706 99945
TDRS 7                  
1 23613U 95035B   20116.50373375 -.00000198  00000-0  00000-0 0  9999
2 23613  14.2079   4.9987 0033081  26.4752  88.6772  1.00274423 90750
ISS (ZARYA)             
1 25544U 98067A   20116.73715466  .00000808  00000-0  22584-4 0  9990
2 25544  51.6442 248.0617 0001745 190.8339 313.6052 15.49312631223880
LANDSAT 7               
1 25682U 99020A   20116.47124781  .00000017  00000-0  13496-4 0  9992
2 25682  98.0861 180.6977 0001578  69.4736 290.6634 14.57174894118528
TERRA                   
1 25994U 99068A   20116.50098928  .00000059  00000-0  23216-4 0  9994
2 25994  98.2145 191.5154 0001061  99.3481 260.7842 14.57126145 82609
TDRS 8                  
1 26388U 00034A   20116.50487667 -.00000224  00000-0  00000-0 0  9996
2 26388   9.1516  47.9086 0019986 319.0231 117.6940  1.00280288 72687
TIMED                   
1 26998U 01055B   20116.49223497  .00000098  00000-0  14685-4 0  9990
2 26998  74.0744  38.6264 0001094 209.6996 150.4122 14.88184422996614
TDRS 9                  
1 27389U 02011A   20116.46269411 -.00000278  00000-0  00000-0 0  9994
2 27389   7.3840  67.9073 0026426 283.6436 326.5897  1.00266483 67943
AQUA                    
1 27424U 02022A   20116.61313816  .00000085  00000-0  28922-4 0  9994
2 27424  98.2058  58.0144 0002332 116.3546   9.1267 14.57117367956176
TDRS 10                 
1 27566U 02055A   20116.58711674  .00000098  00000-0  00000-0 0  9994
2 27566   6.8173  53.8645 0009965 306.5569 253.7915  1.00270965 63738
SORCE                   
1 27651U 03004A   20116.45856239  .00000054  00000-0  19844-4 0  9999
2 27651  39.9953 265.5627 0023130   3.0195 357.0730 14.89105275936321
AURA                    
1 28376U 04026A   20116.59472055  .00000092  00000-0  30518-4 0  9997
2 28376  98.2051  60.1533 0001596  85.1665 274.9716 14.57119321839227
SWIFT                   
1 28485U 04047A   20116.46242055  .00000837  00000-0  26710-4 0  9998
2 28485  20.5576  35.8368 0011318 107.0412 253.1262 15.04595290845486
THEMIS A                
1 30580U 07004A   20116.15276702 -.00000409  00000-0  00000+0 0  9990
2 30580  13.9624  51.4866 8414767  20.1843 358.4950  0.87837844 46236
THEMIS D                
1 30797U 07004D   20116.17898501 -.00000412  00000-0  72917-2 0  9992
2 30797  12.5811  31.3517 8372996  42.0357 357.2076  0.87904612 21360
THEMIS E                
1 30798U 07004E   20116.20910047 -.00000410  00000-0  00000-0 0  9997
2 30798  11.5206  41.9100 8373682  34.1570 357.6651  0.87843813 46191
AIM                     
1 31304U 07015A   20116.61591687  .00000718  00000-0  44064-4 0  9995
2 31304  97.9141 357.4059 0005289 162.5893 197.5519 15.13531370712696
FGRST (GLAST)           
1 33053U 08029A   20116.35689725  .00000437  00000-0  81735-5 0  9991
2 33053  25.5823 101.9548 0012642 112.2590 247.9287 15.11329520655299
WISE                    
1 36119U 09071A   20116.36802357  .00000631  00000-0  24262-4 0  9991
2 36119  97.3341 153.3259 0002183 170.8489 189.2792 15.30040044575701
TDRS 11                 
1 39070U 13004A   20116.63296321  .00000081  00000-0  00000-0 0  9998
2 39070   3.9095 331.8782 0005888  40.8930 254.7479  1.00271755 26488
TDRS 12                 
1 39504U 14004A   20116.45286031 -.00000270  00000-0  00000-0 0  9999
2 39504   4.7224 338.1189 0002088 114.9390 242.7109  1.00264755 21772
GPM-CORE                
1 39574U 14009C   20116.56275164  .00002175  00000-0  35823-4 0  9998
2 39574  65.0064 331.5161 0011705 288.6011  71.3863 15.55600780349811
MMS 1                   
1 40482U 15011A   20111.32331903 -.00000001  00000-0  00000+0 0  9996
2 40482  26.7581 120.3298 8686940  19.8710 219.2124  0.28580409 11044
MMS 2                   
1 40483U 15011B   20110.08333333 -.00000059  00000-0  00000+0 0  9991
2 40483  26.7644 120.3695 8692042  19.8261  91.7200  0.28585787 11027
MMS 3                   
1 40484U 15011C   20110.08333333 -.00000059  00000-0  00000+0 0  9992
2 40484  26.7831 120.3608 8694015  19.8320  91.6985  0.28587107 11025
MMS 4                   
1 40485U 15011D   20110.53798178 -.00000033  00000-0  00000+0 0  9997
2 40485  26.7560 120.3506 8688751  19.8407 138.4632  0.28592214 11022
TDRS 13                 
1 42915U 17047A   20116.36118073 -.00000100  00000-0  00000+0 0  9990
2 42915   5.6582 330.2014 0017036  87.8951 274.4013  1.00272988  9880
JPSS-1                  
1 43013U 17073A   20116.56275993  .00000002  00000-0  21691-4 0  9990
2 43013  98.7146  55.3391 0001432  98.4327 261.7011 14.19552105126153
